$$SOE
2460728.500000000, A.D. 2025-Feb-22 00:00:00.0000, -3.510287207634499E+08, -2.899158240816042E+08, -6.562767439753343E+07,
2460735.500000000, A.D. 2025-Mar-01 00:00:00.0000, -3.447495208245921E+08, -2.978672362342263E+08, -6.621889483735210E+07,
2460742.500000000, A.D. 2025-Mar-08 00:00:00.0000, -3.382988151729901E+08, -3.056705369253938E+08, -6.677717382512774E+07,
2460749.500000000, A.D. 2025-Mar-15 00:00:00.0000, -3.316802573858353E+08, -3.133222478045736E+08, -6.730232250171052E+07,
2460756.500000000, A.D. 2025-Mar-22 00:00:00.0000, -3.248975601388717E+08, -3.208189765333921E+08, -6.779416800799456E+07,
2460763.500000000, A.D. 2025-Mar-29 00:00:00.0000, -3.179544939371646E+08, -3.281574190324309E+08, -6.825255344363947E+07,
2460770.500000000, A.D. 2025-Apr-05 00:00:00.0000, -3.108548841834126E+08, -3.353343608027174E+08, -6.867733790569408E+07,
2460777.500000000, A.D. 2025-Apr-12 00:00:00.0000, -3.036026085110567E+08, -3.423466772187099E+08, -6.906839642244253E+07,
2460784.500000000, A.D. 2025-Apr-19 00:00:00.0000, -2.962015945695065E+08, -3.491913336741340E+08, -6.942561983740154E+07,
2460791.500000000, A.D. 2025-Apr-26 00:00:00.0000, -2.886558179890341E+08, -3.558653857837302E+08, -6.974891468488058E+07,
2460798.500000000, A.D. 2025-May-03 00:00:00.0000, -2.809693004103190E+08, -3.623659796223298E+08, -7.003820306587794E+07,
2460805.500000000, A.D. 2025-May-10 00:00:00.0000, -2.731461075486246E+08, -3.686903519940605E+08, -7.029342252632344E+07,
2460812.500000000, A.D. 2025-May-17 00:00:00.0000, -2.651903472548278E+08, -3.748358307750733E+08, -7.051452594479017E+07,
2460819.500000000, A.D. 2025-May-24 00:00:00.0000, -2.571061673991026E+08, -3.807998353871287E+08, -7.070148145074563E+07,
2460826.500000000, A.D. 2025-May-31 00:00:00.0000, -2.488977531599017E+08, -3.865798770938161E+08, -7.085427238695878E+07,
2460833.500000000, A.D. 2025-Jun-07 00:00:00.0000, -2.405693241197193E+08, -3.921735579165869E+08, -7.097289718130817E+07,
2460840.500000000, A.D. 2025-Jun-14 00:00:00.0000, -2.321251335320096E+08, -3.975785688386462E+08, -7.105736896580194E+07,
2460847.500000000, A.D. 2025-Jun-21 00:00:00.0000, -2.235694685418170E+08, -4.027926905698209E+08, -7.110771532206064E+07,
2460854.500000000, A.D. 2025-Jun-28 00:00:00.0000, -2.149066482320704E+08, -4.078137951103510E+08, -7.112397829652521E+07,
2460861.500000000, A.D. 2025-Jul-05 00:00:00.0000, -2.061410210128030E+08, -4.126398459589381E+08, -7.110621437034968E+07,
2460868.500000000, A.D. 2025-Jul-12 00:00:00.0000, -1.972769625442518E+08, -4.172688977711192E+08, -7.105449434052059E+07,
2460875.500000000, A.D. 2025-Jul-19 00:00:00.0000, -1.883188740036240E+08, -4.216990960434587E+08, -7.096890317642421E+07,
2460882.500000000, A.D. 2025-Jul-26 00:00:00.0000, -1.792711804845226E+08, -4.259286768807208E+08, -7.084953987560225E+07,
2460889.500000000, A.D. 2025-Aug-02 00:00:00.0000, -1.701383294624828E+08, -4.299559668254367E+08, -7.069651732291201E+07,
2460896.500000000, A.D. 2025-Aug-09 00:00:00.0000, -1.609247893023097E+08, -4.337793827658495E+08, -7.050996215649733E+07,
2460903.500000000, A.D. 2025-Aug-16 00:00:00.0000, -1.516350477296870E+08, -4.373974319867441E+08, -7.029001465280342E+07,
2460910.500000000, A.D. 2025-Aug-23 00:00:00.0000, -1.422736099739042E+08, -4.408087123476996E+08, -7.003682865601772E+07,
2460917.500000000, A.D. 2025-Aug-30 00:00:00.0000, -1.328449962522006E+08, -4.440119118755276E+08, -6.975057152354473E+07,
2460924.500000000, A.D. 2025-Sep-06 00:00:00.0000, -1.233537400131220E+08, -4.470058067709239E+08, -6.943142387534365E+07,
2460931.500000000, A.D. 2025-Sep-13 00:00:00.0000, -1.138043886082627E+08, -4.497892603120770E+08, -6.907957919638494E+07,
2460938.500000000, A.D. 2025-Sep-20 00:00:00.0000, -1.042015031174948E+08, -4.523612243005450E+08, -6.869524372671911E+07,
2460945.500000000, A.D. 2025-Sep-27 00:00:00.0000, -9.454965626827368E+07, -4.547207399396539E+08, -6.827863648207217E+07,
2460952.500000000, A.D. 2025-Oct-04 00:00:00.0000, -8.485343046527795E+07, -4.568669376073410E+08, -6.782998917588380E+07,
2460959.500000000, A.D. 2025-Oct-11 00:00:00.0000, -7.511741630341008E+07, -4.587990364668272E+08, -6.734954608543074E+07,
2460966.500000000, A.D. 2025-Oct-18 00:00:00.0000, -6.534621127964137E+07, -4.605163441895596E+08, -6.683756391034102E+07,
2460973.500000000, A.D. 2025-Oct-25 00:00:00.0000, -5.554441856305005E+07, -4.620182567792535E+08, -6.629431163534397E+07,
2460980.500000000, A.D. 2025-Nov-01 00:00:00.0000, -4.571664578222439E+07, -4.633042584815457E+08, -6.572007039971262E+07,
2460987.500000000, A.D. 2025-Nov-08 00:00:00.0000, -3.586750379410177E+07, -4.643739218111130E+08, -6.511513337942508E+07,
2460994.500000000, A.D. 2025-Nov-15 00:00:00.0000, -2.600160528531307E+07, -4.652269077555722E+08, -6.447980570076472E+07,
2461001.500000000, A.D. 2025-Nov-22 00:00:00.0000, -1.612356280257115E+07, -4.658629659368176E+08, -6.381440440465143E+07,
2461008.500000000, A.D. 2025-Nov-29 00:00:00.0000, -6.237986364745181E+06, -4.662819335952941E+08, -6.311925835514620E+07,
2461015.500000000, A.D. 2025-Dec-06 00:00:00.0000, 3.650517066488484E+06, -4.664837335329423E+08, -6.239470789444044E+07,
2461022.500000000, A.D. 2025-Dec-13 00:00:00.0000, 1.353734269211607E+07, -4.664683743843503E+08, -6.164110455955020E+07,
2461029.500000000, A.D. 2025-Dec-20 00:00:00.0000, 2.341788905172056E+07, -4.662359521931007E+08, -6.085881109763780E+07,
2461036.500000000, A.D. 2025-Dec-27 00:00:00.0000, 3.328756019643374E+07, -4.657866507023354E+08, -6.004820146970230E+07,
2461043.500000000, A.D. 2026-Jan-03 00:00:00.0000, 4.314176739979769E+07, -4.651207409739524E+08, -5.920966075871974E+07,
2461050.500000000, A.D. 2026-Jan-10 00:00:00.0000, 5.297593051708595E+07, -4.642385810130575E+08, -5.834358504722866E+07,
2461057.500000000, A.D. 2026-Jan-17 00:00:00.0000, 6.278547922734793E+07, -4.631406154869070E+08, -5.745038129276606E+07,
2461064.500000000, A.D. 2026-Jan-24 00:00:00.0000, 7.256585423842394E+07, -4.618273755141561E+08, -5.653046720635745E+07,
2461071.500000000, A.D. 2026-Jan-31 00:00:00.0000, 8.231250848070262E+07, -4.602994785314311E+08, -5.558427113703242E+07,
2461078.500000000, A.D. 2026-Feb-07 00:00:00.0000, 9.202090835292216E+07, -4.585576282951170E+08, -5.461223197300777E+07,
2461085.500000000, A.D. 2026-Feb-14 00:00:00.0000, 1.016865352740356E+08, -4.566026150345346E+08, -5.361479908418515E+07,
2461092.500000000, A.D. 2026-Feb-21 00:00:00.0000, 1.113048879289654E+08, -4.544353151799994E+08, -5.259243229427674E+07,
2461099.500000000, A.D. 2026-Feb-28 00:00:00.0000, 1.208714841232734E+08, -4.520566895119579E+08, -5.154560168846530E+07,
2461106.500000000, A.D. 2026-Mar-07 00:00:00.0000, 1.303818601881644E+08, -4.494677816795012E+08, -5.047478722664219E+07,
2461113.500000000, A.D. 2026-Mar-14 00:00:00.0000, 1.398315707124982E+08, -4.466697194188759E+08, -4.938047860701421E+07,
2461120.500000000, A.D. 2026-Mar-21 00:00:00.0000, 1.492161903863666E+08, -4.436637155733286E+08, -4.826317530656311E+07,
2461127.500000000, A.D. 2026-Mar-28 00:00:00.0000, 1.585313159480965E+08, -4.404510678857155E+08, -4.712338652979720E+07,
2461134.500000000, A.D. 2026-Apr-04 00:00:00.0000, 1.677725676318432E+08, -4.370331585292522E+08, -4.596163108903587E+07,
2461141.500000000, A.D. 2026-Apr-11 00:00:00.0000, 1.769355903905379E+08, -4.334114537358257E+08, -4.477843727040982E+07,
2461148.500000000, A.D. 2026-Apr-18 00:00:00.0000, 1.860160550543152E+08, -4.295875035279450E+08, -4.357434270035604E+07,
2461155.500000000, A.D. 2026-Apr-25 00:00:00.0000, 1.950096594710918E+08, -4.255629415387353E+08, -4.234989421520883E+07,
2461162.500000000, A.D. 2026-May-02 00:00:00.0000, 2.039121296610407E+08, -4.213394849483606E+08, -4.110564773875001E+07,
2461169.500000000, A.D. 2026-May-09 00:00:00.0000, 2.127192211111162E+08, -4.169189346018889E+08, -3.984216818426427E+07,
2461176.500000000, A.D. 2026-May-16 00:00:00.0000, 2.214267205894752E+08, -4.123031751697292E+08, -3.856002940426371E+07,
2461183.500000000, A.D. 2026-May-23 00:00:00.0000, 2.300304485331696E+08, -4.074941743284807E+08, -3.725981410892758E+07,
2461190.500000000, A.D. 2026-May-30 00:00:00.0000, 2.385262599312241E+08, -4.024939806425875E+08, -3.594211353632030E+07,
2461197.500000000, A.D. 2026-Jun-06 00:00:00.0000, 2.469100433857464E+08, -3.973047234187545E+08, -3.460752711261514E+07,
2461204.500000000, A.D. 2026-Jun-13 00:00:00.0000, 2.551777220178306E+08, -3.919286143320469E+08, -3.325666242225271E+07,
2461211.500000000, A.D. 2026-Jun-20 00:00:00.0000, 2.633252557187353E+08, -3.863679478967427E+08, -3.189013520306215E+07,
2461218.500000000, A.D. 2026-Jun-27 00:00:00.0000, 2.713486430490586E+08, -3.806251011214939E+08, -3.050856923847009E+07,
2461225.500000000, A.D. 2026-Jul-04 00:00:00.0000, 2.792439227864666E+08, -3.747025331230534E+08, -2.911259621021394E+07,
2461232.500000000, A.D. 2026-Jul-11 00:00:00.0000, 2.870071753764192E+08, -3.686027848296260E+08, -2.770285554569574E+07,
2461239.500000000, A.D. 2026-Jul-18 00:00:00.0000, 2.946345243789074E+08, -3.623284787471752E+08, -2.627999426640692E+07,
2461246.500000000, A.D. 2026-Jul-25 00:00:00.0000, 3.021221379355850E+08, -3.558823187847418E+08, -2.484466683940540E+07,
2461253.500000000, A.D. 2026-Aug-01 00:00:00.0000, 3.094662303051076E+08, -3.492670901850594E+08, -2.339753504010938E+07,
2461260.500000000, A.D. 2026-Aug-08 00:00:00.0000, 3.166630636817119E+08, -3.424856595939780E+08, -2.193926784893693E+07,
2461267.500000000, A.D. 2026-Aug-15 00:00:00.0000, 3.237089507131869E+08, -3.355409748163964E+08, -2.047054138291007E+07,
2461274.500000000, A.D. 2026-Aug-22 00:00:00.0000, 3.306002569585386E+08, -3.284360630368384E+08, -1.899203869240397E+07,
2461281.500000000, A.D. 2026-Aug-29 00:00:00.0000, 3.373334009961471E+08, -3.211740288770555E+08, -1.750444932502128E+07,
2461288.500000000, A.D. 2026-Sep-05 00:00:00.0000, 3.439048543144966E+08, -3.137580551566600E+08, -1.600846908644928E+07,
$$EOE